NORAD_CAT_ID,OBJECT_NAME,OBJECT_TYPE,EPOCH,MEAN_MOTION,ECCENTRICITY,INCLINATION,RA_OF_ASC_NODE,ARG_OF_PERICENTER,MEAN_ANOMALY,BSTAR,MEAN_MOTION_DOT,MEAN_MOTION_DDOT,TLE_LINE0,TLE_LINE1,TLE_LINE2,SEMIMAJOR_AXIS,PERIOD,APOGEE,PERIGEE,DECAYED
55932.0,STARLINK-5848,PAYLOAD,2024-08-06 14:01:03,14.98317169,0.0003001,69.9995,286.9219,265.4345,94.6471,-0.00011328,-1.444e-05,0.0,0 STARLINK-5848,1 55932U 23037U   24219.58407396 -.00001444  00000-0 -11328-3 0  9992,2 55932  69.9995 286.9219 0003001 265.4345  94.6471 14.98317169 77580,6950.233,96.108,574.183,570.012,0.0
55932.0,STARLINK-5848,PAYLOAD,2024-08-07 12:26:55,14.98340423,0.0003158,69.999,284.5648,265.7932,94.2866,1.8795e-05,1.31e-06,0.0,0 STARLINK-5848,1 55932U 23037U   24220.51869644  .00000131  00000-0  18795-4 0  9991,2 55932  69.9990 284.5648 0003158 265.7932  94.2866 14.98340423 78060,6950.161,96.106,574.221,569.831,0.0
55932.0,STARLINK-5848,PAYLOAD,2024-08-08 14:05:04,14.98332388,0.0003222,69.9989,281.8714,263.6189,96.4603,0.00027593,3.201e-05,0.0,0 STARLINK-5848,1 55932U 23037U   24221.58685624  .00003201  00000-0  27593-3 0  9999,2 55932  69.9989 281.8714 0003222 263.6189  96.4603 14.98332388 77888,6950.186,96.107,574.29,569.811,0.0
55932.0,STARLINK-5848,PAYLOAD,2024-08-09 14:07:05,14.98335637,0.0002925,69.9999,279.3493,256.8066,103.2767,2.2737e-05,1.78e-06,0.0,0 STARLINK-5848,1 55932U 23037U   24222.58825801  .00000178  00000-0  22737-4 0  9999,2 55932  69.9999 279.3493 0002925 256.8066 103.2767 14.98335637 78038,6950.175,96.107,574.073,570.008,0.0
55932.0,STARLINK-5848,PAYLOAD,2024-08-10 04:32:18,14.98328589,0.0002755,70.0003,277.8347,257.0018,103.0833,-3.0976e-05,-4.63e-06,0.0,0 STARLINK-5848,1 55932U 23037U   24223.18910303 -.00000463  00000-0 -30976-4 0  9991,2 55932  70.0003 277.8347 0002755 257.0018 103.0833 14.98328589 78466,6950.197,96.107,573.977,570.147,0.0
55932.0,STARLINK-5848,PAYLOAD,2024-08-10 14:09:06,14.98332013,0.0002927,69.9991,276.8212,260.6671,99.4157,2.7552e-06,-6e-07,0.0,0 STARLINK-5848,1 55932U 23037U   24223.58966008 -.00000060  00000-0  27552-5 0  9997,2 55932  69.9991 276.8212 0002927 260.6671  99.4157 14.98332013 78188,6950.187,96.107,574.086,570.017,0.0
55932.0,STARLINK-5848,PAYLOAD,2024-08-11 09:22:43,14.98333494,0.0003028,69.9991,274.8021,266.4548,93.6265,6.8359e-05,7.23e-06,0.0,0 STARLINK-5848,1 55932U 23037U   24224.39077705  .00000723  00000-0  68359-4 0  9998,2 55932  69.9991 274.8021 0003028 266.4548  93.6265 14.98333494 78645,6950.182,96.107,574.152,569.943,0.0
55932.0,STARLINK-5848,PAYLOAD,2024-08-11 20:35:38,14.98365237,0.0003263,69.9991,273.622,279.3292,80.7498,-0.00034602,-4.223e-05,0.0,0 STARLINK-5848,1 55932U 23037U   24224.85808196 -.00004223  00000-0 -34602-3 0  9999,2 55932  69.9991 273.6220 0003263 279.3292  80.7498 14.98365237 78716,6950.084,96.105,574.217,569.681,0.0
55932.0,STARLINK-5848,PAYLOAD,2024-08-12 04:36:19,14.98327524,0.000301,69.9992,272.7815,269.3357,90.7457,0.00011854,1.322e-05,0.0,0 STARLINK-5848,1 55932U 23037U   24225.19189757  .00001322  00000-0  11854-3 0  9991,2 55932  69.9992 272.7815 0003010 269.3357  90.7457 14.98327524 78766,6950.201,96.107,574.158,569.974,0.0
55932.0,STARLINK-5848,PAYLOAD,2024-08-12 09:24:43,14.9833341,0.0003111,69.9984,272.2765,272.8923,87.188,8.9929e-05,9.8e-06,0.0,0 STARLINK-5848,1 55932U 23037U   24225.39217467  .00000980  00000-0  89929-4 0  9991,2 55932  69.9984 272.2765 0003111 272.8923  87.1880 14.98333410 78453,6950.182,96.107,574.21,569.885,0.0
55932.0,STARLINK-5848,PAYLOAD,2024-08-13 04:38:21,14.98323725,0.0002878,69.9988,270.257,265.9338,94.1492,-9.2397e-05,-1.195e-05,0.0,0 STARLINK-5848,1 55932U 23037U   24226.19330126 -.00001195  00000-0 -92397-4 0  9992,2 55932  69.9988 270.2570 0002878 265.9338  94.1492 14.98323725 78917,6950.212,96.107,574.078,570.077,0.0
55932.0,STARLINK-5848,PAYLOAD,2024-08-13 09:26:45,14.98325389,0.0003217,69.9975,269.7506,271.7439,88.3351,-0.00012762,-1.615e-05,0.0,0 STARLINK-5848,1 55932U 23037U   24226.39358135 -.00001615  00000-0 -12762-3 0  9998,2 55932  69.9975 269.7506 0003217 271.7439  88.3351 14.98325389 78603,6950.207,96.107,574.308,569.836,0.0
55932.0,STARLINK-5848,PAYLOAD,2024-08-13 20:39:42,14.98325156,0.0003165,69.9976,268.5716,271.8242,88.2554,-0.00011942,-1.517e-05,0.0,0 STARLINK-5848,1 55932U 23037U   24226.86090286 -.00001517  00000-0 -11942-3 0  9990,2 55932  69.9976 268.5716 0003165 271.8242  88.2554 14.98325156 78672,6950.208,96.107,574.273,569.873,0.0
55932.0,STARLINK-5848,PAYLOAD,2024-08-14 04:40:22,14.98317558,0.0003207,69.9975,267.7307,271.4367,88.6424,-5.2575e-05,-7.2e-06,0.0,0 STARLINK-5848,1 55932U 23037U   24227.19470760 -.00000720  00000-0 -52575-4 0  9999,2 55932  69.9975 267.7307 0003207 271.4367  88.6424 14.98317558 79060,6950.231,96.108,574.325,569.867,0.0
55932.0,STARLINK-5848,PAYLOAD,2024-08-14 12:41:03,14.98322135,0.0003094,69.9977,266.8888,270.6943,89.3862,-9.3253e-05,-1.205e-05,0.0,0 STARLINK-5848,1 55932U 23037U   24227.52850732 -.00001205  00000-0 -93253-4 0  9994,2 55932  69.9977 266.8888 0003094 270.6943  89.3862 14.98322135 78779,6950.217,96.108,574.233,569.932,0.0
55932.0,STARLINK-5848,PAYLOAD,2024-08-15 04:42:23,14.98317829,0.0003113,69.9974,265.2055,270.0051,90.0751,9.4836e-05,1.038e-05,0.0,0 STARLINK-5848,1 55932U 23037U   24228.19610829  .00001038  00000-0  94836-4 0  9999,2 55932  69.9974 265.2055 0003113 270.0051  90.0751 14.98317829 79211,6950.231,96.108,574.259,569.932,0.0
55932.0,STARLINK-5848,PAYLOAD,2024-08-15 09:30:47,14.98319858,0.0003115,69.9975,264.7006,270.007,90.0732,0.0001127,1.252e-05,0.0,0 STARLINK-5848,1 55932U 23037U   24228.39638821  .00001252  00000-0  11270-3 0  9991,2 55932  69.9975 264.7006 0003115 270.0070  90.0732 14.98319858 78903,6950.224,96.108,574.254,569.924,0.0
55932.0,STARLINK-5848,PAYLOAD,2024-08-15 19:07:36,14.98322712,0.0003072,69.9976,263.6904,270.3635,89.7172,0.00013925,1.569e-05,0.0,0 STARLINK-5848,1 55932U 23037U   24228.79694810  .00001569  00000-0  13925-3 0  9995,2 55932  69.9976 263.6904 0003072 270.3635  89.7172 14.98322712 78963,6950.215,96.107,574.216,569.945,0.0
55932.0,STARLINK-5848,PAYLOAD,2024-08-16 04:44:24,14.98326159,0.0003114,69.9975,262.6803,270.4705,89.6097,0.00019091,2.185e-05,0.0,0 STARLINK-5848,1 55932U 23037U   24229.19750656  .00002185  00000-0  19091-3 0  9996,2 55932  69.9975 262.6803 0003114 270.4705  89.6097 14.98326159 79364,6950.205,96.107,574.234,569.905,0.0
55932.0,STARLINK-5848,PAYLOAD,2024-08-16 09:32:48,14.98328855,0.0003112,69.9975,262.1754,270.4034,89.6768,0.00019791,2.269e-05,0.0,0 STARLINK-5848,1 55932U 23037U   24229.39778548  .00002269  00000-0  19791-3 0  9998,2 55932  69.9975 262.1754 0003112 270.4034  89.6768 14.98328855 79053,6950.196,96.107,574.224,569.899,0.0
55932.0,STARLINK-5848,PAYLOAD,2024-08-17 04:46:24,14.98339685,0.0003119,69.9975,260.1552,270.2565,89.8236,0.00017435,1.988e-05,0.0,0 STARLINK-5848,1 55932U 23037U   24230.19889792  .00001988  00000-0  17435-3 0  9992,2 55932  69.9975 260.1552 0003119 270.2565  89.8236 14.98339685 79517,6950.163,96.106,574.196,569.86,0.0
55932.0,STARLINK-5848,PAYLOAD,2024-08-17 07:58:40,14.98339902,0.0003119,69.9976,259.8186,270.13,89.9502,0.00017459,1.991e-05,0.0,0 STARLINK-5848,1 55932U 23037U   24230.33241728  .00001991  00000-0  17459-3 0  9999,2 55932  69.9976 259.8186 0003119 270.1300  89.9502 14.98339902 79195,6950.162,96.106,574.195,569.86,0.0
55932.0,STARLINK-5848,PAYLOAD,2024-08-18 04:48:25,14.98337275,0.0002931,69.998,257.6309,265.0676,95.0149,1.092e-05,3.7e-07,0.0,0 STARLINK-5848,1 55932U 23037U   24231.20029747  .00000037  00000-0  10920-4 0  9998,2 55932  69.9980 257.6309 0002931 265.0676  95.0149 14.98337275 79661,6950.17,96.107,574.072,569.998,0.0
55932.0,STARLINK-5848,PAYLOAD,2024-08-18 12:49:05,14.98335494,0.0003044,69.9977,256.7886,266.7885,93.2925,-1.1785e-05,-2.34e-06,0.0,0 STARLINK-5848,1 55932U 23037U   24231.53409715 -.00000234  00000-0 -11785-4 0  9992,2 55932  69.9977 256.7886 0003044 266.7885  93.2925 14.98335494 79374,6950.176,96.107,574.157,569.925,0.0
55932.0,STARLINK-5848,PAYLOAD,2024-08-19 04:50:26,14.9833221,0.0002998,69.9976,255.1048,265.1944,94.8873,-0.0001043,-1.337e-05,0.0,0 STARLINK-5848,1 55932U 23037U   24232.20169920 -.00001337  00000-0 -10430-3 0  9998,2 55932  69.9976 255.1048 0002998 265.1944  94.8873 14.98332210 79813,6950.186,96.107,574.135,569.967,0.0
55932.0,STARLINK-5848,PAYLOAD,2024-08-19 09:38:51,14.98331174,0.0003022,69.9976,254.5999,267.8242,92.2571,-0.00011389,-1.452e-05,0.0,0 STARLINK-5848,1 55932U 23037U   24232.40197990 -.00001452  00000-0 -11389-3 0  9990,2 55932  69.9976 254.5999 0003022 267.8242  92.2571 14.98331174 79501,6950.189,96.107,574.155,569.954,0.0
55932.0,STARLINK-5848,PAYLOAD,2024-08-20 04:52:27,14.98321538,0.0003352,69.9974,252.5793,274.7218,85.3559,-7.0875e-05,-9.38e-06,0.0,0 STARLINK-5848,1 55932U 23037U   24233.20309944 -.00000938  00000-0 -70875-4 0  9997,2 55932  69.9974 252.5793 0003352 274.7218  85.3559 14.98321538 79967,6950.219,96.108,574.414,569.754,0.0
55932.0,STARLINK-5848,PAYLOAD,2024-08-20 11:16:59,14.98325541,0.0002896,69.9977,251.9061,265.0597,95.0232,-2.6587e-05,-4.1e-06,0.0,0 STARLINK-5848,1 55932U 23037U   24233.47013605 -.00000410  00000-0 -26587-4 0  9998,2 55932  69.9977 251.9061 0002896 265.0597  95.0232 14.98325541 80007,6950.207,96.107,574.084,570.059,0.0
55932.0,STARLINK-5848,PAYLOAD,2024-08-21 11:19:00,14.98329938,0.0002821,69.998,249.3807,265.324,94.7597,8.8648e-05,9.65e-06,0.0,0 STARLINK-5848,1 55932U 23037U   24234.47153254  .00000965  00000-0  88648-4 0  9993,2 55932  69.9980 249.3807 0002821 265.3240  94.7597 14.98329938 80156,6950.193,96.107,574.019,570.097,0.0
